[Satellite]
VERSION=1.1
NAME=KAZSAT-2
NICKNAME=KAZSAT-2
TLE1=1 37749U 11035B   17186.01924240 -.00000203  00000-0  00000-0 0  9991
TLE2=2 37749   0.0517 172.5158 0001476 334.0767 230.0076  1.00273636 21797
